48967,ONEWEB-0249,2021,109.37,148.0,+,87.92,Active,1,LEO,Russia,UK,Commercial,Communications,Soyuz,1 48967U 21060A   24230.35485758  .00000182  00000+0  44158-3 0  9994,2 48967  87.9151   1.9442 0001812  97.7594 262.3742 13.16593526151600,13.16593526,0.0001812,LEO
48968,ONEWEB-0250,2021,108.64,148.0,+,87.92,Active,1,LEO,Russia,UK,Commercial,Communications,Soyuz,1 48968U 21060B   24230.32097878  .00000039  00000+0  60177-4 0  9995,2 48968  87.9150   1.8804 0001631 111.4199 248.7111 13.25518297151593,13.25518297,0.0001631,LEO
48970,ONEWEB-0252,2021,109.37,148.0,+,87.92,Active,1,LEO,Russia,UK,Commercial,Communications,Soyuz,1 48970U 21060D   24230.31052453  .00000081  00000+0  17735-3 0  9995,2 48970  87.9154   1.9463 0001658  93.3240 266.8080 13.16594356151648,13.16594356,0.0001658,LEO
48971,ONEWEB-0253,2021,109.37,148.0,+,87.91,Active,1,LEO,Russia,UK,Commercial,Communications,Soyuz,1 48971U 21060E   24230.29943951  .00000087  00000+0  19289-3 0  9997,2 48971  87.9149   1.9592 0001468  99.9478 260.1818 13.16593984151574,13.16593984,0.0001468,LEO
48972,ONEWEB-0254,2021,109.37,148.0,+,87.92,Active,1,LEO,Russia,UK,Commercial,Communications,Soyuz,1 48972U 21060F   24230.38493455  .00000057  00000+0  11518-3 0  9991,2 48972  87.9152   1.9209 0001461 100.7603 259.3693 13.16594786151581,13.16594786,0.0001461,LEO
48973,ONEWEB-0255,2021,109.37,148.0,+,87.92,Active,1,LEO,Russia,UK,Commercial,Communications,Soyuz,1 48973U 21060G   24230.42293344 -.00000053  00000+0 -17158-3 0  9996,2 48973  87.9150   1.9477 0001774  99.6303 260.5028 13.16594130151665,13.1659413,0.0001774,LEO
48974,ONEWEB-0256,2021,109.37,148.0,+,87.92,Active,1,LEO,Russia,UK,Commercial,Communications,Soyuz,1 48974U 21060H   24229.76508730  .00000073  00000+0  15610-3 0  9991,2 48974  87.9153   2.0834 0001840  91.9262 268.2080 13.16596357151544,13.16596357,0.000184,LEO
48975,ONEWEB-0257,2021,109.37,148.0,+,87.92,Active,1,LEO,Russia,UK,Commercial,Communications,Soyuz,1 48975U 21060J   24230.32951848  .00000062  00000+0  12819-3 0  9994,2 48975  87.9150   1.9404 0001659  93.7338 266.3983 13.16595891151571,13.16595891,0.0001659,LEO
